ECHOSTAR 21             
1 42749U 17032A   26195.13335500  .00000062  00000+0  00000+0 0  9998
2 42749   1.7705 357.4376 0001958 110.8851 241.9557  1.00273131 33366
HXMT (HUIYAN)           
1 42758U 17034A   26195.03606709  .00002357  00000+0  12173-3 0  9998
2 42758  43.0153  33.5161 0032417 313.6575  46.1587 15.18682725501743
CARTOSAT-2E             
1 42767U 17036C   26195.18034387  .00003277  00000+0  15868-3 0  9999
2 42767  97.4263 254.5358 0003154 193.3081 166.8071 15.19251181502245
BULGARIASAT-1           
1 42801U 17038A   26195.13162167  .00000005  00000+0  00000+0 0  9997
2 42801   0.0026 353.5491 0003058 124.8355 222.8874  1.00271056 33112
IRIDIUM 113             
1 42803U 17039A   26194.82216572  .00000009  00000+0 -38789-5 0  9991
2 42803  86.3988 311.0464 0002014  90.6247 269.5180 14.34217159475009
IRIDIUM 123             
1 42804U 17039B   26194.93341248 -.00000006  00000+0 -93188-5 0  9995
2 42804  86.3986 342.4561 0002053  96.2898 263.8531 14.34217116473784
IRIDIUM 120             
1 42805U 17039C   26194.74605641 -.00000027  00000+0 -16805-4 0  9998
2 42805  86.3975 310.8574 0002217  99.1623 260.9824 14.34217725474988
IRIDIUM 115             
1 42806U 17039D   26195.01894913  .00000177  00000+0  46723-4 0  9998
2 42806  86.4517 310.8755 0002230  99.7329 260.4124 14.43277227478139
IRIDIUM 118             
1 42807U 17039E   26194.89535831  .00000016  00000+0 -15143-5 0  9991
2 42807  86.3984 342.4700 0002050  90.5553 269.5878 14.34217372473772
IRIDIUM 117             
1 42808U 17039F   26194.91438469  .00000071  00000+0  18343-4 0  9998
2 42808  86.3989 342.4192 0002180  94.5533 265.5912 14.34217264473808
IRIDIUM 126             
1 42809U 17039G   26194.93975580  .00000073  00000+0  18886-4 0  9995
2 42809  86.3990 342.4604 0002054  90.7005 269.4426 14.34217990473787
IRIDIUM 124             
1 42810U 17039H   26194.74473652  .00000178  00000+0  46928-4 0  9993
2 42810  86.4483 279.2551 0002292  95.7669 264.3793 14.43285651478943
IRIDIUM 128             
1 42811U 17039J   26195.00026471  .00000016  00000+0 -13917-5 0  9992
2 42811  86.3962  13.9365 0002170  94.6001 265.5443 14.34216527473827
IRIDIUM 121             
1 42812U 17039K   26194.88901573 -.00000010  00000+0 -10735-4 0  9992
2 42812  86.3987 342.5101 0002150  93.4922 266.6520 14.34217245473658
HELLAS-SAT 3            
1 42814U 17040A   26195.13907502  .00000146  00000+0  00000+0 0  9990
2 42814   0.0478  46.5165 0003183  28.9541 305.5864  1.00270672 33070
GSAT-17                 
1 42815U 17040B   26195.14982176 -.00000264  00000+0  00000+0 0  9994
2 42815   0.0696  88.3690 0002253 168.3216 182.7524  1.00270801 33055
INTELSAT 35E (IS-35E)   
1 42818U 17041A   26195.12451497  .00000000  00000+0  00000+0 0  9990
2 42818   0.0246  51.2406 0001616  59.4902 191.5916  1.00267333 33089
KANOPUS-V-IK            
1 42825U 17042A   26194.76879654  .00001224  00000+0  54860-4 0  9994
2 42825  97.3552  99.7550 0001754  92.4858 267.6580 15.23086194499412
NORSAT 1                
1 42826U 17042B   26195.03592358  .00003244  00000+0  18024-3 0  9994
2 42826  97.4459   2.1606 0006677   2.4530 357.6734 15.14386151491292
NORSAT 2                
1 42828U 17042D   26195.04571029  .00005677  00000+0  24844-3 0  9998
2 42828  97.4047   8.0712 0008304 322.7708  37.2952 15.22413945491827
TECHNOSAT               
1 42829U 17042E   26195.04287340  .00001918  00000+0  13854-3 0  9992
2 42829  97.4314 351.6848 0017539   7.2436 352.9041 15.05107048490746
FLYING LAPTOP           
1 42831U 17042G   26195.18031697  .00001917  00000+0  15288-3 0  9994
2 42831  97.4795 349.6965 0019737  35.8212 324.4332 15.01308283490501
WNISAT 1R               
1 42835U 17042L   26194.94297323  .00000532  00000+0  45161-4 0  9997
2 42835  97.4822 350.1096 0011029  68.7024 291.5378 15.01857185490526
LEMUR-2-GREENBERG       
1 42837U 17042N   26195.06726058  .00009723  00000+0  31565-3 0  9998
2 42837  97.3821  15.5850 0007190 263.7777  96.2646 15.32129917492509
LEMUR-2-ANDIS           
1 42838U 17042P   26194.96768590  .00013147  00000+0  37818-3 0  9996
2 42838  97.3674  15.7663 0007167 263.0855  96.9574 15.35893253492561
LEMUR-2-MONSON          
1 42839U 17042Q   26194.80759331  .00007810  00000+0  28219-3 0  9998
2 42839  97.4086  15.2572 0005239 251.8262 108.2408 15.28729745492232
LEMUR-2-FURIAUS         
1 42840U 17042R   26193.44556340  .00010642  00000+0  35675-3 0  9995
2 42840  97.3775  11.8672 0006239 340.6601  19.4403 15.31072029492076
LEMUR-2-PETERG          
1 42841U 17042S   26194.96784661  .00011532  00000+0  34182-3 0  9994
2 42841  97.3987  20.0635 0003225 225.2776 134.8205 15.35000836492541
LEMUR-2-DEMBITZ         
1 42842U 17042T   26195.03381088  .00009940  00000+0  33333-3 0  9997
2 42842  97.3822  16.4895 0005022 279.7285  80.3388 15.31088712492455
NANOACE                 
1 42844U 17042V   26195.00275759  .00006560  00000+0  26488-3 0  9991
2 42844  97.3747   8.8689 0002692 278.8921  81.2012 15.25107624492165
LEMUR-2-ZACHARY         
1 42845U 17042W   26195.08551992  .00032159  00000+0  52258-3 0  9993
2 42845  97.3571  27.3393 0002500 255.8073 104.2902 15.52645142493370
