OBJECT_NAME,OBJECT_ID,EPOCH,MEAN_MOTION,ECCENTRICITY,INCLINATION,RA_OF_ASC_NODE,ARG_OF_PERICENTER,MEAN_ANOMALY,EPHEMERIS_TYPE,CLASSIFICATION_TYPE,NORAD_CAT_ID,ELEMENT_SET_NO,REV_AT_EPOCH,BSTAR,MEAN_MOTION_DOT,MEAN_MOTION_DDOT
ECHOSTAR 21,2017-032A,2026-07-14T03:12:01.872000,1.00273131,.0001958,1.7705,357.4376,110.8851,241.9557,0,U,42749,999,3336,0,.62E-6,0
HXMT (HUIYAN),2017-034A,2026-07-14T00:51:56.196576,15.18682725,.0032417,43.0153,33.5161,313.6575,46.1587,0,U,42758,999,50174,.12173E-3,.2357E-4,0
CARTOSAT-2E,2017-036C,2026-07-14T04:19:41.710368,15.19251181,.0003154,97.4263,254.5358,193.3081,166.8071,0,U,42767,999,50224,.15868E-3,.3277E-4,0
BULGARIASAT-1,2017-038A,2026-07-14T03:09:32.112288,1.00271056,.0003058,0.0026,353.5491,124.8355,222.8874,0,U,42801,999,3311,0,.5E-7,0
IRIDIUM 113,2017-039A,2026-07-13T19:43:55.118208,14.34217159,.0002014,86.3988,311.0464,90.6247,269.5180,0,U,42803,999,47500,-.38789E-5,.9E-7,0
IRIDIUM 123,2017-039B,2026-07-13T22:24:06.838272,14.34217116,.0002053,86.3986,342.4561,96.2898,263.8531,0,U,42804,999,47378,-.93188E-5,-.6E-7,0
IRIDIUM 120,2017-039C,2026-07-13T17:54:19.273824,14.34217725,.0002217,86.3975,310.8574,99.1623,260.9824,0,U,42805,999,47498,-.16805E-4,-.27E-6,0
IRIDIUM 115,2017-039D,2026-07-14T00:27:17.204832,14.43277227,.000223,86.4517,310.8755,99.7329,260.4124,0,U,42806,999,47813,.46723E-4,.177E-5,0
IRIDIUM 118,2017-039E,2026-07-13T21:29:18.957984,14.34217372,.000205,86.3984,342.4700,90.5553,269.5878,0,U,42807,999,47377,-.15143E-5,.16E-6,0
IRIDIUM 117,2017-039F,2026-07-13T21:56:42.837216,14.34217264,.000218,86.3989,342.4192,94.5533,265.5912,0,U,42808,999,47380,.18343E-4,.71E-6,0
IRIDIUM 126,2017-039G,2026-07-13T22:33:14.901120,14.34217990,.0002054,86.3990,342.4604,90.7005,269.4426,0,U,42809,999,47378,.18886E-4,.73E-6,0
IRIDIUM 124,2017-039H,2026-07-13T17:52:25.235328,14.43285651,.0002292,86.4483,279.2551,95.7669,264.3793,0,U,42810,999,47894,.46928E-4,.178E-5,0
IRIDIUM 128,2017-039J,2026-07-14T00:00:22.870944,14.34216527,.000217,86.3962,13.9365,94.6001,265.5443,0,U,42811,999,47382,-.13917E-5,.16E-6,0
IRIDIUM 121,2017-039K,2026-07-13T21:20:10.959072,14.34217245,.000215,86.3987,342.5101,93.4922,266.6520,0,U,42812,999,47365,-.10735E-4,-.1E-6,0
HELLAS-SAT 3,2017-040A,2026-07-14T03:20:16.081728,1.00270672,.0003183,0.0478,46.5165,28.9541,305.5864,0,U,42814,999,3307,0,.146E-5,0
GSAT-17,2017-040B,2026-07-14T03:35:44.600064,1.00270801,.0002253,0.0696,88.3690,168.3216,182.7524,0,U,42815,999,3305,0,-.264E-5,0
INTELSAT 35E (IS-35E),2017-041A,2026-07-14T02:59:18.093408,1.00267333,.0001616,0.0246,51.2406,59.4902,191.5916,0,U,42818,999,3308,0,0,0
KANOPUS-V-IK,2017-042A,2026-07-13T18:27:04.021056,15.23086194,.0001754,97.3552,99.7550,92.4858,267.6580,0,U,42825,999,49941,.5486E-4,.1224E-4,0
NORSAT 1,2017-042B,2026-07-14T00:51:43.797312,15.14386151,.0006677,97.4459,2.1606,2.4530,357.6734,0,U,42826,999,49129,.18024E-3,.3244E-4,0
NORSAT 2,2017-042D,2026-07-14T01:05:49.369056,15.22413945,.0008304,97.4047,8.0712,322.7708,37.2952,0,U,42828,999,49182,.24844E-3,.5677E-4,0
TECHNOSAT,2017-042E,2026-07-14T01:01:44.261760,15.05107048,.0017539,97.4314,351.6848,7.2436,352.9041,0,U,42829,999,49074,.13854E-3,.1918E-4,0
FLYING LAPTOP,2017-042G,2026-07-14T04:19:39.386208,15.01308283,.0019737,97.4795,349.6965,35.8212,324.4332,0,U,42831,999,49050,.15288E-3,.1917E-4,0
WNISAT 1R,2017-042L,2026-07-13T22:37:52.887072,15.01857185,.0011029,97.4822,350.1096,68.7024,291.5378,0,U,42835,999,49052,.45161E-4,.532E-5,0
LEMUR-2-GREENBERG,2017-042N,2026-07-14T01:36:51.314112,15.32129917,.000719,97.3821,15.5850,263.7777,96.2646,0,U,42837,999,49250,.31565E-3,.9723E-4,0
LEMUR-2-ANDIS,2017-042P,2026-07-13T23:13:28.061760,15.35893253,.0007167,97.3674,15.7663,263.0855,96.9574,0,U,42838,999,49256,.37818E-3,.13147E-3,0
LEMUR-2-MONSON,2017-042Q,2026-07-13T19:22:56.061984,15.28729745,.0005239,97.4086,15.2572,251.8262,108.2408,0,U,42839,999,49223,.28219E-3,.781E-4,0
LEMUR-2-FURIAUS,2017-042R,2026-07-12T10:41:36.677760,15.31072029,.00062398,97.3775,11.8672,340.6601,19.4403,0,U,42840,999,49207,.35675373E-3,.10642E-3,0
LEMUR-2-PETERG,2017-042S,2026-07-13T23:13:41.947104,15.35000836,.0003225,97.3987,20.0635,225.2776,134.8205,0,U,42841,999,49254,.34182E-3,.11532E-3,0
LEMUR-2-DEMBITZ,2017-042T,2026-07-14T00:48:41.260032,15.31088712,.0005022,97.3822,16.4895,279.7285,80.3388,0,U,42842,999,49245,.33333E-3,.994E-4,0
NANOACE,2017-042V,2026-07-14T00:03:58.255776,15.25107624,.0002692,97.3747,8.8689,278.8921,81.2012,0,U,42844,999,49216,.26488E-3,.656E-4,0
LEMUR-2-ZACHARY,2017-042W,2026-07-14T02:03:08.921088,15.52645142,.00025,97.3571,27.3393,255.8073,104.2902,0,U,42845,999,49337,.52258E-3,.32159E-3,0
